{
    "links": {
        "self": "http://www.neowsapp.com/rest/v1/neo/3752776?api_key=iIulBulltgU6a56xZRHN4H3l9WmuAYTsLGpBGhQ2"
    },
    "id": "3752776",
    "neo_reference_id": "3752776",
    "name": "(2016 JU5)",
    "designation": "2016 JU5",
    "nasa_jpl_url": "http://ssd.jpl.nasa.gov/sbdb.cgi?sstr=3752776",
    "absolute_magnitude_h": 26.1,
    "estimated_diameter": {
        "kilometers": {
            "estimated_diameter_min": 0.0160160338,
            "estimated_diameter_max": 0.0358129403
        },
        "meters": {
            "estimated_diameter_min": 16.0160337979,
            "estimated_diameter_max": 35.8129403019
        },
        "miles": {
            "estimated_diameter_min": 0.0099518989,
            "estimated_diameter_max": 0.0222531225
        },
        "feet": {
            "estimated_diameter_min": 52.5460443254,
            "estimated_diameter_max": 117.4965270602
        }
    },
    "is_potentially_hazardous_asteroid": false,
    "close_approach_data": [
        {
            "close_approach_date": "2016-04-28",
            "close_approach_date_full": "2016-Apr-28 12:34",
            "epoch_date_close_approach": 1461846840000,
            "relative_velocity": {
                "kilometers_per_second": "18.8031185223",
                "kilometers_per_hour": "67691.2266802804",
                "miles_per_hour": "42060.6958225331"
            },
            "miss_distance": {
                "astronomical": "0.0141564899",
                "lunar": "5.5068745711",
                "kilometers": "2117780.735716513",
                "miles": "1315927.9287853594"
            },
            "orbiting_body": "Earth"
        },
        {
            "close_approach_date": "2068-10-18",
            "close_approach_date_full": "2068-Oct-18 05:37",
            "epoch_date_close_approach": 3117764220000,
            "relative_velocity": {
                "kilometers_per_second": "27.8232343415",
                "kilometers_per_hour": "100163.6436294608",
                "miles_per_hour": "62237.7928985392"
            },
            "miss_distance": {
                "astronomical": "0.3032749519",
                "lunar": "117.9739562891",
                "kilometers": "45369286.828592453",
                "miles": "28191167.5934757314"
            },
            "orbiting_body": "Earth"
        },
        {
            "close_approach_date": "2126-05-16",
            "close_approach_date_full": "2126-May-16 10:46",
            "epoch_date_close_approach": 4934601960000,
            "relative_velocity": {
                "kilometers_per_second": "27.3327768411",
                "kilometers_per_hour": "98397.9966281227",
                "miles_per_hour": "61140.6885159577"
            },
            "miss_distance": {
                "astronomical": "0.2945575788",
                "lunar": "114.5828981532",
                "kilometers": "44065186.380837156",
                "miles": "27380837.1507625128"
            },
            "orbiting_body": "Earth"
        },
        {
            "close_approach_date": "2178-10-04",
            "close_approach_date_full": "2178-Oct-04 07:42",
            "epoch_date_close_approach": 6587768520000,
            "relative_velocity": {
                "kilometers_per_second": "17.8379235767",
                "kilometers_per_hour": "64216.5248762881",
                "miles_per_hour": "39901.6512488247"
            },
            "miss_distance": {
                "astronomical": "0.0809457586",
                "lunar": "31.4879000954",
                "kilometers": "12109313.072094182",
                "miles": "7524378.2329444316"
            },
            "orbiting_body": "Mars"
        },
        {
            "close_approach_date": "2178-11-16",
            "close_approach_date_full": "2178-Nov-16 18:25",
            "epoch_date_close_approach": 6591522300000,
            "relative_velocity": {
                "kilometers_per_second": "14.364399057",
                "kilometers_per_hour": "51711.8366051867",
                "miles_per_hour": "32131.724250595"
            },
            "miss_distance": {
                "astronomical": "0.1438143605",
                "lunar": "55.9437862345",
                "kilometers": "21514322.006212135",
                "miles": "13368379.794652063"
            },
            "orbiting_body": "Earth"
        }
    ],
    "orbital_data": {
        "orbit_id": "4",
        "orbit_determination_date": "2019-07-19 05:26:03",
        "first_observation_date": "2016-05-01",
        "last_observation_date": "2016-05-05",
        "data_arc_in_days": 4,
        "observations_used": 15,
        "orbit_uncertainty": "8",
        "minimum_orbit_intersection": ".0138039",
        "jupiter_tisserand_invariant": "3.874",
        "epoch_osculation": "2457512.5",
        "eccentricity": ".6467525275600234",
        "semi_major_axis": "1.738922901035503",
        "inclination": "1.396064051906098",
        "ascending_node_longitude": "183.9583838828653",
        "orbital_period": "837.5657648246146",
        "perihelion_distance": ".6142701195587831",
        "perihelion_argument": "304.7430020491707",
        "aphelion_distance": "2.863575682512224",
        "perihelion_time": "2457457.602908240301",
        "mean_anomaly": "23.59570300444405",
        "mean_motion": ".4298169948187694",
        "equinox": "J2000",
        "orbit_class": {
            "orbit_class_type": "APO",
            "orbit_class_description": "Near-Earth asteroid orbits which cross the Earth’s orbit similar to that of 1862 Apollo",
            "orbit_class_range": "a (semi-major axis) > 1.0 AU; q (perihelion) < 1.017 AU"
        }
    },
    "is_sentry_object": false
}